CTC1_L_00416016-03
1 13517U 26468HZ  26037.47805556  .00000000  00000+0  00000-0 0  9990
2 13517  80.0000 180.0000 0000000   0.0000   0.0000 12.77881336    13
CTC1_L_00416016-04
1 13518U 24771BO  26037.47805556  .00000000  00000+0  00000-0 0  9996
2 13518  80.0000 180.0000 0000000   0.0000  90.0000 12.77881336    13
CTC1_L_00416017-01
1 13519U 25561XB  26037.47805556  .00000000  00000+0  00000-0 0  9995
2 13519  80.0000 192.0000 0000000   0.0000 192.0000 12.77881336    10
CTC1_L_00416017-02
1 13520U 23113MV  26037.47805556  .00000000  00000+0  00000-0 0  9998
2 13520  80.0000 192.0000 0000000   0.0000 282.0000 12.77881336    12
CTC1_L_00416017-03
1 13521U 22008XD  26037.47805556  .00000000  00000+0  00000-0 0  9991
2 13521  80.0000 192.0000 0000000   0.0000  12.0000 12.77881336    14
CTC1_L_00416017-04
1 13522U 25914RM  26037.47805556  .00000000  00000+0  00000-0 0  9991
2 13522  80.0000 192.0000 0000000   0.0000 102.0000 12.77881336    15
CTC1_L_00416018-01
1 13523U 25572UF  26037.47805556  .00000000  00000+0  00000-0 0  9992
2 13523  80.0000 204.0000 0000000   0.0000 204.0000 12.77881336    13
CTC1_L_00416018-02
1 13524U 23978P   26037.47805556  .00000000  00000+0  00000-0 0  9991
2 13524  80.0000 204.0000 0000000   0.0000 294.0000 12.77881336    13
CTC1_L_00416018-03
1 13525U 26966OM  26037.47805556  .00000000  00000+0  00000-0 0  9992
2 13525  80.0000 204.0000 0000000   0.0000  24.0000 12.77881336    15
CTC1_L_00416018-04
1 13526U 23489SB  26037.47805556  .00000000  00000+0  00000-0 0  9990
2 13526  80.0000 204.0000 0000000   0.0000 114.0000 12.77881336    16
CTC1_L_00416019-01
1 13527U 24788YY  26037.47805556  .00000000  00000+0  00000-0 0  9994
2 13527  80.0000 216.0000 0000000   0.0000 216.0000 12.77881336    13
CTC1_L_00416019-02
1 13528U 23658QY  26037.47805556  .00000000  00000+0  00000-0 0  9990
2 13528  80.0000 216.0000 0000000   0.0000 306.0000 12.77881336    14
CTC1_L_00416019-03
1 13529U 26301LE  26037.47805556  .00000000  00000+0  00000-0 0  9999
2 13529  80.0000 216.0000 0000000   0.0000  36.0000 12.77881336    15
CTC1_L_00416019-04
1 13530U 24133QS  26037.47805556  .00000000  00000+0  00000-0 0  9992
2 13530  80.0000 216.0000 0000000   0.0000 126.0000 12.77881336    17
CTC1_L_00416020-01
1 13531U 26578JV  26037.47805556  .00000000  00000+0  00000-0 0  9998
2 13531  80.0000 228.0000 0000000   0.0000 228.0000 12.77881336    14
CTC1_L_00416020-02
1 13532U 26321CK  26037.47805556  .00000000  00000+0  00000-0 0  9995
2 13532  80.0000 228.0000 0000000   0.0000 318.0000 12.77881336    15
CTC1_L_00416020-03
1 13533U 23762GC  26037.47805556  .00000000  00000+0  00000-0 0  9992
2 13533  80.0000 228.0000 0000000   0.0000  48.0000 12.77881336    16
CTC1_L_00416020-04
1 13534U 26983KG  26037.47805556  .00000000  00000+0  00000-0 0  9991
2 13534  80.0000 228.0000 0000000   0.0000 138.0000 12.77881336    17
CTC1_L_00416021-01
1 13535U 23763UR  26037.47805556  .00000000  00000+0  00000-0 0  9995
2 13535  80.0000 240.0000 0000000   0.0000 240.0000 12.77881336    16
CTC1_L_00416021-02
1 13536U 22260FL  26037.47805556  .00000000  00000+0  00000-0 0  9997
2 13536  80.0000 240.0000 0000000   0.0000 330.0000 12.77881336    17
CTC1_L_00416021-03
1 13537U 25925HQ  26037.47805556  .00000000  00000+0  00000-0 0  9999
2 13537  80.0000 240.0000 0000000   0.0000  60.0000 12.77881336    18
CTC1_L_00416021-04
1 13538U 23310UQ  26037.47805556  .00000000  00000+0  00000-0 0  9996
2 13538  80.0000 240.0000 0000000   0.0000 150.0000 12.77881336    19
CTC1_L_00416022-01
1 13539U 26694YC  26037.47805556  .00000000  00000+0  00000-0 0  9995
2 13539  80.0000 252.0000 0000000   0.0000 252.0000 12.77881336    16
CTC1_L_00416022-02
1 13540U 24857LY  26037.47805556  .00000000  00000+0  00000-0 0  9996
2 13540  80.0000 252.0000 0000000   0.0000 342.0000 12.77881336    18
CTC1_L_00416022-03
1 13541U 23839QL  26037.47805556  .00000000  00000+0  00000-0 0  9996
2 13541  80.0000 252.0000 0000000   0.0000  72.0000 12.77881336    19
CTC1_L_00416022-04
1 13542U 26144YE  26037.47805556  .00000000  00000+0  00000-0 0  9999
2 13542  80.0000 252.0000 0000000   0.0000 162.0000 12.77881336    10
CTC1_L_00416023-01
1 13543U 23122TK  26037.47805556  .00000000  00000+0  00000-0 0  9993
2 13543  80.0000 264.0000 0000000   0.0000 264.0000 12.77881336    17
CTC1_L_00416023-02
1 13544U 22615EI  26037.47805556  .00000000  00000+0  00000-0 0  9990
2 13544  80.0000 264.0000 0000000   0.0000 354.0000 12.77881336    18
CTC1_L_00416023-03
1 13545U 22588GT  26037.47805556  .00000000  00000+0  00000-0 0  9990
2 13545  80.0000 264.0000 0000000   0.0000  84.0000 12.77881336    19
CTC1_L_00416023-04
1 13546U 22720OQ  26037.47805556  .00000000  00000+0  00000-0 0  9999
2 13546  80.0000 264.0000 0000000   0.0000 174.0000 12.77881336    10
CTC1_L_00416024-01
1 13547U 22734WV  26037.47805556  .00000000  00000+0  00000-0 0  9995
2 13547  80.0000 276.0000 0000000   0.0000 276.0000 12.77881336    17
CTC1_L_00416024-02
1 13548U 23715JE  26037.47805556  .00000000  00000+0  00000-0 0  9996
2 13548  80.0000 276.0000 0000000   0.0000   6.0000 12.77881336    19
CTC1_L_00416024-03
1 13549U 26632JA  26037.47805556  .00000000  00000+0  00000-0 0  9998
2 13549  80.0000 276.0000 0000000   0.0000  96.0000 12.77881336    19
CTC1_L_00416024-04
1 13550U 23081MK  26037.47805556  .00000000  00000+0  00000-0 0  9995
2 13550  80.0000 276.0000 0000000   0.0000 186.0000 12.77881336    11
CTC1_L_00416025-01
1 13551U 25944NH  26037.47805556  .00000000  00000+0  00000-0 0  9996
2 13551  80.0000 288.0000 0000000   0.0000 288.0000 12.77881336    18
CTC1_L_00416025-02
1 13552U 24752FM  26037.47805556  .00000000  00000+0  00000-0 0  9993
2 13552  80.0000 288.0000 0000000   0.0000  18.0000 12.77881336    10
CTC1_L_00416025-03
1 13553U 26398GI  26037.47805556  .00000000  00000+0  00000-0 0  9992
2 13553  80.0000 288.0000 0000000   0.0000 108.0000 12.77881336    11
CTC1_L_00416025-04
1 13554U 22396GC  26037.47805556  .00000000  00000+0  00000-0 0  9997
2 13554  80.0000 288.0000 0000000   0.0000 198.0000 12.77881336    11
CTC1_L_00416026-01
1 13555U 26465HT  26037.47805556  .00000000  00000+0  00000-0 0  9999
2 13555  80.0000 300.0000 0000000   0.0000 300.0000 12.77881336    12
CTC1_L_00416026-02
1 13556U 23952IT  26037.47805556  .00000000  00000+0  00000-0 0  9998
2 13556  80.0000 300.0000 0000000   0.0000  30.0000 12.77881336    13
CTC1_L_00416026-03
1 13557U 24291WS  26037.47805556  .00000000  00000+0  00000-0 0  9996
2 13557  80.0000 300.0000 0000000   0.0000 120.0000 12.77881336    14
CTC1_L_00416026-04
1 13558U 22951OT  26037.47805556  .00000000  00000+0  00000-0 0  9998
2 13558  80.0000 300.0000 0000000   0.0000 210.0000 12.77881336    15
CTC1_L_00416027-01
1 13559U 25027EI  26037.47805556  .00000000  00000+0  00000-0 0  9996
2 13559  80.0000 312.0000 0000000   0.0000 312.0000 12.77881336    12
CTC1_L_00416027-02
1 13560U 25569ZO  26037.47805556  .00000000  00000+0  00000-0 0  9999
2 13560  80.0000 312.0000 0000000   0.0000  42.0000 12.77881336    14
CTC1_L_00416027-03
1 13561U 23432DT  26037.47805556  .00000000  00000+0  00000-0 0  9997
2 13561  80.0000 312.0000 0000000   0.0000 132.0000 12.77881336    15
CTC1_L_00416027-04
1 13562U 22291BB  26037.47805556  .00000000  00000+0  00000-0 0  9990
2 13562  80.0000 312.0000 0000000   0.0000 222.0000 12.77881336    16
CTC1_L_00416028-01
1 13563U 25030HR  26037.47805556  .00000000  00000+0  00000-0 0  9995
2 13563  80.0000 324.0000 0000000   0.0000 324.0000 12.77881336    13
CTC1_L_00416028-02
1 13564U 24514ZJ  26037.47805556  .00000000  00000+0  00000-0 0  9992
2 13564  80.0000 324.0000 0000000   0.0000  54.0000 12.77881336    14
CTC1_L_00416028-03
1 13565U 22559FD  26037.47805556  .00000000  00000+0  00000-0 0  9990
2 13565  80.0000 324.0000 0000000   0.0000 144.0000 12.77881336    15
CTC1_L_00416028-04
1 13566U 24157YI  26037.47805556  .00000000  00000+0  00000-0 0  9997
2 13566  80.0000 324.0000 0000000   0.0000 234.0000 12.77881336    16
CTC1_L_00416029-01
1 13567U 22710NP  26037.47805556  .00000000  00000+0  00000-0 0  9991
2 13567  80.0000 336.0000 0000000   0.0000 336.0000 12.77881336    13
CTC1_L_00416029-02
1 13568U 24520QF  26037.47805556  .00000000  00000+0  00000-0 0  9993
2 13568  80.0000 336.0000 0000000   0.0000  66.0000 12.77881336    14
CTC1_L_00416029-03
1 13569U 23248IW  26037.47805556  .00000000  00000+0  00000-0 0  9990
2 13569  80.0000 336.0000 0000000   0.0000 156.0000 12.77881336    15
CTC1_L_00416029-04
1 13570U 23959DN  26037.47805556  .00000000  00000+0  00000-0 0  9991
2 13570  80.0000 336.0000 0000000   0.0000 246.0000 12.77881336    17
CTC1_L_00416030-01
1 13571U 23051GC  26037.47805556  .00000000  00000+0  00000-0 0  9995
2 13571  80.0000 348.0000 0000000   0.0000 348.0000 12.77881336    14
CTC1_L_00416030-02
1 13572U 22470MC  26037.47805556  .00000000  00000+0  00000-0 0  9990
2 13572  80.0000 348.0000 0000000   0.0000  78.0000 12.77881336    15
CTC1_L_00416030-03
1 13573U 24439JG  26037.47805556  .00000000  00000+0  00000-0 0  9998
2 13573  80.0000 348.0000 0000000   0.0000 168.0000 12.77881336    16
CTC1_L_00416030-04
1 13574U 22131V   26037.47805556  .00000000  00000+0  00000-0 0  9996
2 13574  80.0000 348.0000 0000000   0.0000 258.0000 12.77881336    17
